EUTELSAT 139 WEST A     
1 28187U 04008A   26089.11640025  .00000124  00000+0  00000+0 0  9997
2 28187   5.6289  72.9370 0003570  25.0284 145.9143  1.00833594 80561
EUTELSAT 174A           
1 28924U 05052A   26094.21069329  .00000011  00000+0  00000+0 0  9990
2 28924   4.0324  77.4236 0006524 300.7677  64.2054  1.00274704 51592
EUTELSAT 33F            
1 29270U 06032A   26094.18864199  .00000156  00000+0  00000+0 0  9998
2 29270   1.4706  83.0468 0003582 291.9865 278.4700  1.00270806 46560
EUTELSAT HOTBIRD 13C    
1 33459U 08065A   26094.23756006 -.00000282  00000+0  00000+0 0  9994
2 33459   2.7607  80.0451 0004137 302.0183 205.7254  1.00273746 46609
EUTELSAT 36B            
1 36101U 09065A   26094.24350380  .00000112  00000+0  00000+0 0  9999
2 36101   0.3052  78.9592 0005986 298.9146 312.8270  1.00273278 59962
EUTELSAT KA-SAT 9A      
1 37258U 10069A   26093.82152869  .00000060  00000+0  00000+0 0  9996
2 37258   0.0602   1.2423 0003496 135.8807 359.7614  1.00269682 43265
EUTELSAT 7 WEST A       
1 37816U 11051A   26094.17481314 -.00000061  00000+0  00000+0 0  9999
2 37816   0.0774  29.8657 0001620  90.2120 128.0056  1.00272662 53135
EUTELSAT 16A            
1 37836U 11057A   26094.19419966  .00000103  00000+0  00000+0 0  9999
2 37836   0.0583  14.9844 0005547   2.3828 261.0447  1.00272864  6593
EUTELSAT 21B            
1 38992U 12062B   26094.19419966  .00000129  00000+0  00000+0 0  9998
2 38992   0.0709   8.9559 0002834   3.0250 272.0308  1.00272988 49082
EUTELSAT 70B            
1 39020U 12069A   26094.19023987 -.00000044  00000+0  00000+0 0  9999
2 39020   0.0662 353.2769 0001752  24.8335 313.3915  1.00272337 48760
EUTELSAT 117 WEST A     
1 39122U 13012A   26094.22438667 -.00000013  00000+0  00000+0 0  9996
2 39122   0.0500  55.9155 0002971 319.1205 141.4757  1.00271848 47690
EUTELSAT 7B             
1 39163U 13022A   26094.17758648  .00000047  00000+0  00000+0 0  9996
2 39163   0.0721  18.4428 0006293 351.2683 253.7027  1.00273468 47209
EXPRESS-AT1             
1 39612U 14010A   26094.18746653  .00000073  00000+0  00000+0 0  9996
2 39612   0.0725  81.6821 0001058   3.0897 231.7473  1.00282123 44075
EXPRESS-AT2             
1 39613U 14010B   26094.18729319  .00000078  00000+0  00000+0 0  9992
2 39613   0.0411  75.0033 0000438 192.3836  48.5317  1.00273629 43752
EUTELSAT 3B             
1 39773U 14030A   26094.17680648  .00000019  00000+0  00000+0 0  9996
2 39773   0.0664 358.1244 0001090  88.1232 172.9798  1.00270436 43326
EUTELSAT 115 WEST B     
1 40425U 15010B   26094.08216610 -.00000026  00000+0  00000+0 0  9994
2 40425   0.0257  45.2121 0000172 183.7729 238.1041  1.00272107 40657
EUTELSAT 8 WEST B       
1 40875U 15039B   26094.17463980 -.00000066  00000+0  00000+0 0  9992
2 40875   0.0693   8.7805 0003807   6.0108 232.5809  1.00272314 38915
