[{"OBJECT_NAME":"EUTELSAT 139 WEST A","OBJECT_ID":"2004-008A","EPOCH":"2026-03-30T02:47:36.981600","MEAN_MOTION":1.00833594,"ECCENTRICITY":0.00035708,"INCLINATION":5.6289,"RA_OF_ASC_NODE":72.937,"ARG_OF_PERICENTER":25.0284,"MEAN_ANOMALY":145.9143,"EPHEMERIS_TYPE":0,"CLASSIFICATION_TYPE":"U","NORAD_CAT_ID":28187,"ELEMENT_SET_NO":999,"REV_AT_EPOCH":8056,"BSTAR":0,"MEAN_MOTION_DOT":1.24e-6,"MEAN_MOTION_DDOT":0},{"OBJECT_NAME":"EUTELSAT 174A","OBJECT_ID":"2005-052A","EPOCH":"2026-04-04T05:03:23.900256","MEAN_MOTION":1.00274704,"ECCENTRICITY":0.00065241,"INCLINATION":4.0324,"RA_OF_ASC_NODE":77.4236,"ARG_OF_PERICENTER":300.7677,"MEAN_ANOMALY":64.2054,"EPHEMERIS_TYPE":0,"CLASSIFICATION_TYPE":"U","NORAD_CAT_ID":28924,"ELEMENT_SET_NO":999,"REV_AT_EPOCH":5159,"BSTAR":0,"MEAN_MOTION_DOT":1.1e-7,"MEAN_MOTION_DDOT":0},{"OBJECT_NAME":"EUTELSAT 33F","OBJECT_ID":"2006-032A","EPOCH":"2026-04-04T04:31:38.667936","MEAN_MOTION":1.00270806,"ECCENTRICITY":0.00035828,"INCLINATION":1.4706,"RA_OF_ASC_NODE":83.0468,"ARG_OF_PERICENTER":291.9865,"MEAN_ANOMALY":278.47,"EPHEMERIS_TYPE":0,"CLASSIFICATION_TYPE":"U","NORAD_CAT_ID":29270,"ELEMENT_SET_NO":999,"REV_AT_EPOCH":4656,"BSTAR":0,"MEAN_MOTION_DOT":1.56e-6,"MEAN_MOTION_DDOT":0},{"OBJECT_NAME":"EUTELSAT HOTBIRD 13C","OBJECT_ID":"2008-065A","EPOCH":"2026-04-04T05:42:05.189184","MEAN_MOTION":1.00273746,"ECCENTRICITY":0.00041371,"INCLINATION":2.7607,"RA_OF_ASC_NODE":80.0451,"ARG_OF_PERICENTER":302.0183,"MEAN_ANOMALY":205.7254,"EPHEMERIS_TYPE":0,"CLASSIFICATION_TYPE":"U","NORAD_CAT_ID":33459,"ELEMENT_SET_NO":999,"REV_AT_EPOCH":4660,"BSTAR":0,"MEAN_MOTION_DOT":-2.82e-6,"MEAN_MOTION_DDOT":0},{"OBJECT_NAME":"EUTELSAT 36B","OBJECT_ID":"2009-065A","EPOCH":"2026-04-04T05:50:38.728320","MEAN_MOTION":1.00273278,"ECCENTRICITY":0.00059865,"INCLINATION":0.3052,"RA_OF_ASC_NODE":78.9592,"ARG_OF_PERICENTER":298.9146,"MEAN_ANOMALY":312.827,"EPHEMERIS_TYPE":0,"CLASSIFICATION_TYPE":"U","NORAD_CAT_ID":36101,"ELEMENT_SET_NO":999,"REV_AT_EPOCH":5996,"BSTAR":0,"MEAN_MOTION_DOT":1.12e-6,"MEAN_MOTION_DDOT":0},{"OBJECT_NAME":"EUTELSAT KA-SAT 9A","OBJECT_ID":"2010-069A","EPOCH":"2026-04-03T19:43:00.078816","MEAN_MOTION":1.00269682,"ECCENTRICITY":0.00034963,"INCLINATION":0.0602,"RA_OF_ASC_NODE":1.2423,"ARG_OF_PERICENTER":135.8807,"MEAN_ANOMALY":359.7614,"EPHEMERIS_TYPE":0,"CLASSIFICATION_TYPE":"U","NORAD_CAT_ID":37258,"ELEMENT_SET_NO":999,"REV_AT_EPOCH":4326,"BSTAR":0,"MEAN_MOTION_DOT":6.0e-7,"MEAN_MOTION_DDOT":0},{"OBJECT_NAME":"EUTELSAT 7 WEST A","OBJECT_ID":"2011-051A","EPOCH":"2026-04-04T04:11:43.855296","MEAN_MOTION":1.00272662,"ECCENTRICITY":0.00016201,"INCLINATION":0.0774,"RA_OF_ASC_NODE":29.8657,"ARG_OF_PERICENTER":90.212,"MEAN_ANOMALY":128.0056,"EPHEMERIS_TYPE":0,"CLASSIFICATION_TYPE":"U","NORAD_CAT_ID":37816,"ELEMENT_SET_NO":999,"REV_AT_EPOCH":5313,"BSTAR":0,"MEAN_MOTION_DOT":-6.1e-7,"MEAN_MOTION_DDOT":0},{"OBJECT_NAME":"EUTELSAT 16A","OBJECT_ID":"2011-057A","EPOCH":"2026-04-04T04:39:38.850624","MEAN_MOTION":1.00272864,"ECCENTRICITY":0.00055476,"INCLINATION":0.0583,"RA_OF_ASC_NODE":14.9844,"ARG_OF_PERICENTER":2.3828,"MEAN_ANOMALY":261.0447,"EPHEMERIS_TYPE":0,"CLASSIFICATION_TYPE":"U","NORAD_CAT_ID":37836,"ELEMENT_SET_NO":999,"REV_AT_EPOCH":659,"BSTAR":0,"MEAN_MOTION_DOT":1.03e-6,"MEAN_MOTION_DDOT":0},{"OBJECT_NAME":"EUTELSAT 21B","OBJECT_ID":"2012-062B","EPOCH":"2026-04-04T04:39:38.850624","MEAN_MOTION":1.00272988,"ECCENTRICITY":0.00028345,"INCLINATION":0.0709,"RA_OF_ASC_NODE":8.9559,"ARG_OF_PERICENTER":3.025,"MEAN_ANOMALY":272.0308,"EPHEMERIS_TYPE":0,"CLASSIFICATION_TYPE":"U","NORAD_CAT_ID":38992,"ELEMENT_SET_NO":999,"REV_AT_EPOCH":4908,"BSTAR":0,"MEAN_MOTION_DOT":1.29e-6,"MEAN_MOTION_DDOT":0},{"OBJECT_NAME":"EUTELSAT 70B","OBJECT_ID":"2012-069A","EPOCH":"2026-04-04T04:33:56.724768","MEAN_MOTION":1.00272337,"ECCENTRICITY":0.00017525,"INCLINATION":0.0662,"RA_OF_ASC_NODE":353.2769,"ARG_OF_PERICENTER":24.8335,"MEAN_ANOMALY":313.3915,"EPHEMERIS_TYPE":0,"CLASSIFICATION_TYPE":"U","NORAD_CAT_ID":39020,"ELEMENT_SET_NO":999,"REV_AT_EPOCH":4876,"BSTAR":0,"MEAN_MOTION_DOT":-4.4e-7,"MEAN_MOTION_DDOT":0},{"OBJECT_NAME":"EUTELSAT 117 WEST A","OBJECT_ID":"2013-012A","EPOCH":"2026-04-04T05:23:07.008288","MEAN_MOTION":1.00271848,"ECCENTRICITY":0.00029711,"INCLINATION":0.05,"RA_OF_ASC_NODE":55.9155,"ARG_OF_PERICENTER":319.1205,"MEAN_ANOMALY":141.4757,"EPHEMERIS_TYPE":0,"CLASSIFICATION_TYPE":"U","NORAD_CAT_ID":39122,"ELEMENT_SET_NO":999,"REV_AT_EPOCH":4769,"BSTAR":0,"MEAN_MOTION_DOT":-1.3e-7,"MEAN_MOTION_DDOT":0},{"OBJECT_NAME":"EUTELSAT 7B","OBJECT_ID":"2013-022A","EPOCH":"2026-04-04T04:15:43.471872","MEAN_MOTION":1.00273468,"ECCENTRICITY":0.00062939,"INCLINATION":0.0721,"RA_OF_ASC_NODE":18.4428,"ARG_OF_PERICENTER":351.2683,"MEAN_ANOMALY":253.7027,"EPHEMERIS_TYPE":0,"CLASSIFICATION_TYPE":"U","NORAD_CAT_ID":39163,"ELEMENT_SET_NO":999,"REV_AT_EPOCH":4720,"BSTAR":0,"MEAN_MOTION_DOT":4.7e-7,"MEAN_MOTION_DDOT":0},{"OBJECT_NAME":"EXPRESS-AT1","OBJECT_ID":"2014-010A","EPOCH":"2026-04-04T04:29:57.108192","MEAN_MOTION":1.00282123,"ECCENTRICITY":0.00010586,"INCLINATION":0.0725,"RA_OF_ASC_NODE":81.6821,"ARG_OF_PERICENTER":3.0897,"MEAN_ANOMALY":231.7473,"EPHEMERIS_TYPE":0,"CLASSIFICATION_TYPE":"U","NORAD_CAT_ID":39612,"ELEMENT_SET_NO":999,"REV_AT_EPOCH":4407,"BSTAR":0,"MEAN_MOTION_DOT":7.3e-7,"MEAN_MOTION_DDOT":0},{"OBJECT_NAME":"EXPRESS-AT2","OBJECT_ID":"2014-010B","EPOCH":"2026-04-04T04:29:42.131616","MEAN_MOTION":1.00273629,"ECCENTRICITY":4.385e-5,"INCLINATION":0.0411,"RA_OF_ASC_NODE":75.0033,"ARG_OF_PERICENTER":192.3836,"MEAN_ANOMALY":48.5317,"EPHEMERIS_TYPE":0,"CLASSIFICATION_TYPE":"U","NORAD_CAT_ID":39613,"ELEMENT_SET_NO":999,"REV_AT_EPOCH":4375,"BSTAR":0,"MEAN_MOTION_DOT":7.8e-7,"MEAN_MOTION_DDOT":0},{"OBJECT_NAME":"EUTELSAT 3B","OBJECT_ID":"2014-030A","EPOCH":"2026-04-04T04:14:36.079872","MEAN_MOTION":1.00270436,"ECCENTRICITY":0.00010908,"INCLINATION":0.0664,"RA_OF_ASC_NODE":358.1244,"ARG_OF_PERICENTER":88.1232,"MEAN_ANOMALY":172.9798,"EPHEMERIS_TYPE":0,"CLASSIFICATION_TYPE":"U","NORAD_CAT_ID":39773,"ELEMENT_SET_NO":999,"REV_AT_EPOCH":4332,"BSTAR":0,"MEAN_MOTION_DOT":1.9e-7,"MEAN_MOTION_DDOT":0},{"OBJECT_NAME":"EUTELSAT 115 WEST B","OBJECT_ID":"2015-010B","EPOCH":"2026-04-04T01:58:19.151040","MEAN_MOTION":1.00272107,"ECCENTRICITY":1.722e-5,"INCLINATION":0.0257,"RA_OF_ASC_NODE":45.2121,"ARG_OF_PERICENTER":183.7729,"MEAN_ANOMALY":238.1041,"EPHEMERIS_TYPE":0,"CLASSIFICATION_TYPE":"U","NORAD_CAT_ID":40425,"ELEMENT_SET_NO":999,"REV_AT_EPOCH":4065,"BSTAR":0,"MEAN_MOTION_DOT":-2.6e-7,"MEAN_MOTION_DDOT":0},{"OBJECT_NAME":"EUTELSAT 8 WEST B","OBJECT_ID":"2015-039B","EPOCH":"2026-04-04T04:11:28.878720","MEAN_MOTION":1.00272314,"ECCENTRICITY":0.00038077,"INCLINATION":0.0693,"RA_OF_ASC_NODE":8.7805,"ARG_OF_PERICENTER":6.0108,"MEAN_ANOMALY":232.5809,"EPHEMERIS_TYPE":0,"CLASSIFICATION_TYPE":"U","NORAD_CAT_ID":40875,"ELEMENT_SET_NO":999,"REV_AT_EPOCH":3891,"BSTAR":0,"MEAN_MOTION_DOT":-6.6e-7,"MEAN_MOTION_DDOT":0}]
